{
  "type": "FeatureCollection",
  "features": [
    {
      "type": "Feature",
      "properties": {
        "norad_id": 34464,
        "name": "COSMOS 2251 DEB",
        "group": "cosmos-2251-debris",
        "lat": -35.93585621512183,
        "lon": -98.73729170088319,
        "alt_km": 479.8166733243206,
        "timestamp": "2025-12-16T23:36:36.592461+00:00",
        "meta_object_name": "COSMOS 2251 DEB",
        "meta_object_id": "1993-036TH",
        "meta_epoch": "2025-12-16T06:56:32.088192",
        "meta_mean_motion": 15.27581672,
        "meta_eccentricity": 0.00155615,
        "meta_inclination": 73.9905,
        "meta_ra_of_asc_node": 70.7268,
        "meta_arg_of_pericenter": 251.7793,
        "meta_mean_anomaly": 108.1715,
        "meta_ephemeris_type": 0,
        "meta_classification_type": "U",
        "meta_norad_cat_id": 34464,
        "meta_element_set_no": 999,
        "meta_rev_at_epoch": 89894,
        "meta_bstar": 0.0020776458,
        "meta_mean_motion_dot": 0.00056638,
        "meta_mean_motion_ddot": 0,
        "tle_line1": "1 34464U 93036TH  25350.28926028  .00056638  00000+0  20776-2 0  9995",
        "tle_line2": "2 34464  73.9905  70.7268 0015561 251.7793 108.1715 15.27581672898943"
      },
      "geometry": {
        "type": "Point",
        "coordinates": [
          -98.73729170088319,
          -35.93585621512183
        ]
      }
    },
    {
      "type": "Feature",
      "properties": {
        "norad_id": 34468,
        "name": "COSMOS 2251 DEB",
        "group": "cosmos-2251-debris",
        "lat": -51.9978476038616,
        "lon": 87.72791603675894,
        "alt_km": 706.104935888502,
        "timestamp": "2025-12-16T23:36:36.592471+00:00",
        "meta_object_name": "COSMOS 2251 DEB",
        "meta_object_id": "1993-036TM",
        "meta_epoch": "2025-12-16T07:16:40.056960",
        "meta_mean_motion": 14.4763459,
        "meta_eccentricity": 0.00763269,
        "meta_inclination": 74.0128,
        "meta_ra_of_asc_node": 110.5281,
        "meta_arg_of_pericenter": 254.719,
        "meta_mean_anomaly": 104.5523,
        "meta_ephemeris_type": 0,
        "meta_classification_type": "U",
        "meta_norad_cat_id": 34468,
        "meta_element_set_no": 999,
        "meta_rev_at_epoch": 88513,
        "meta_bstar": 0.00033975778,
        "meta_mean_motion_dot": 1.269e-05,
        "meta_mean_motion_ddot": 0,
        "tle_line1": "1 34468U 93036TM  25350.30324140  .00001269  00000+0  33976-3 0  9996",
        "tle_line2": "2 34468  74.0128 110.5281 0076326 254.7190 104.5523 14.47634590885137"
      },
      "geometry": {
        "type": "Point",
        "coordinates": [
          87.72791603675894,
          -51.9978476038616
        ]
      }
    },
    {
      "type": "Feature",
      "properties": {
        "norad_id": 34472,
        "name": "COSMOS 2251 DEB",
        "group": "cosmos-2251-debris",
        "lat": -46.36364179217519,
        "lon": -71.42205717627319,
        "alt_km": 764.8176047539655,
        "timestamp": "2025-12-16T23:36:36.592482+00:00",
        "meta_object_name": "COSMOS 2251 DEB",
        "meta_object_id": "1993-036TR",
        "meta_epoch": "2025-12-15T16:42:06.945408",
        "meta_mean_motion": 13.70333959,
        "meta_eccentricity": 0.03278684,
        "meta_inclination": 74.0841,
        "meta_ra_of_asc_node": 93.2828,
        "meta_arg_of_pericenter": 223.6385,
        "meta_mean_anomaly": 133.8382,
        "meta_ephemeris_type": 0,
        "meta_classification_type": "U",
        "meta_norad_cat_id": 34472,
        "meta_element_set_no": 999,
        "meta_rev_at_epoch": 83767,
        "meta_bstar": 0.00064255425,
        "meta_mean_motion_dot": 8.06e-06,
        "meta_mean_motion_ddot": 0,
        "tle_line1": "1 34472U 93036TR  25349.69591372  .00000806  00000+0  64255-3 0  9994",
        "tle_line2": "2 34472  74.0841  93.2828 0327868 223.6385 133.8382 13.70333959837673"
      },
      "geometry": {
        "type": "Point",
        "coordinates": [
          -71.42205717627319,
          -46.36364179217519
        ]
      }
    },
    {
      "type": "Feature",
      "properties": {
        "norad_id": 34474,
        "name": "COSMOS 2251 DEB",
        "group": "cosmos-2251-debris",
        "lat": -13.548135274047592,
        "lon": 142.71358245975662,
        "alt_km": 1012.7922459213087,
        "timestamp": "2025-12-16T23:36:36.592492+00:00",
        "meta_object_name": "COSMOS 2251 DEB",
        "meta_object_id": "1993-036TT",
        "meta_epoch": "2025-12-16T07:55:12.381024",
        "meta_mean_motion": 14.06438714,
        "meta_eccentricity": 0.01986525,
        "meta_inclination": 74.0773,
        "meta_ra_of_asc_node": 319.9101,
        "meta_arg_of_pericenter": 32.8501,
        "meta_mean_anomaly": 91.6701,
        "meta_ephemeris_type": 0,
        "meta_classification_type": "U",
        "meta_norad_cat_id": 34474,
        "meta_element_set_no": 999,
        "meta_rev_at_epoch": 85559,
        "meta_bstar": 0.0016437515,
        "meta_mean_motion_dot": 3.225e-05,
        "meta_mean_motion_ddot": 0,
        "tle_line1": "1 34474U 93036TT  25350.33000441  .00003225  00000+0  16438-2 0  9998",
        "tle_line2": "2 34474  74.0773 319.9101 0198652  32.8501  91.6701 14.06438714855590"
      },
      "geometry": {
        "type": "Point",
        "coordinates": [
          142.71358245975662,
          -13.548135274047592
        ]
      }
    },
    {
      "type": "Feature",
      "properties": {
        "norad_id": 34476,
        "name": "COSMOS 2251 DEB",
        "group": "cosmos-2251-debris",
        "lat": 28.010654543815225,
        "lon": -113.4228019626062,
        "alt_km": 1140.7834890215136,
        "timestamp": "2025-12-16T23:36:36.592502+00:00",
        "meta_object_name": "COSMOS 2251 DEB",
        "meta_object_id": "1993-036TV",
        "meta_epoch": "2025-12-16T05:29:06.529056",
        "meta_mean_motion": 13.82064795,
        "meta_eccentricity": 0.03204065,
        "meta_inclination": 74.0076,
        "meta_ra_of_asc_node": 76.6243,
        "meta_arg_of_pericenter": 295.467,
        "meta_mean_anomaly": 61.3625,
        "meta_ephemeris_type": 0,
        "meta_classification_type": "U",
        "meta_norad_cat_id": 34476,
        "meta_element_set_no": 999,
        "meta_rev_at_epoch": 83686,
        "meta_bstar": 0.0025941384,
        "meta_mean_motion_dot": 4.105e-05,
        "meta_mean_motion_ddot": 0,
        "tle_line1": "1 34476U 93036TV  25350.22854779  .00004105  00000+0  25941-2 0  9996",
        "tle_line2": "2 34476  74.0076  76.6243 0320406 295.4670  61.3625 13.82064795836865"
      },
      "geometry": {
        "type": "Point",
        "coordinates": [
          -113.4228019626062,
          28.010654543815225
        ]
      }
    },
    {
      "type": "Feature",
      "properties": {
        "norad_id": 34477,
        "name": "COSMOS 2251 DEB",
        "group": "cosmos-2251-debris",
        "lat": 65.3625259567675,
        "lon": -157.3767482599402,
        "alt_km": 737.2862261814034,
        "timestamp": "2025-12-16T23:36:36.592512+00:00",
        "meta_object_name": "COSMOS 2251 DEB",
        "meta_object_id": "1993-036TW",
        "meta_epoch": "2025-12-16T05:07:14.305728",
        "meta_mean_motion": 14.56889718,
        "meta_eccentricity": 0.00768799,
        "meta_inclination": 73.9794,
        "meta_ra_of_asc_node": 62.882,
        "meta_arg_of_pericenter": 249.395,
        "meta_mean_anomaly": 141.1791,
        "meta_ephemeris_type": 0,
        "meta_classification_type": "U",
        "meta_norad_cat_id": 34477,
        "meta_element_set_no": 999,
        "meta_rev_at_epoch": 88676,
        "meta_bstar": 0.00056722095,
        "meta_mean_motion_dot": 2.617e-05,
        "meta_mean_motion_ddot": 0,
        "tle_line1": "1 34477U 93036TW  25350.21336002  .00002617  00000+0  56722-3 0  9998",
        "tle_line2": "2 34477  73.9794  62.8820 0076879 249.3950 141.1791 14.56889718886767"
      },
      "geometry": {
        "type": "Point",
        "coordinates": [
          -157.3767482599402,
          65.3625259567675
        ]
      }
    },
    {
      "type": "Feature",
      "properties": {
        "norad_id": 34478,
        "name": "COSMOS 2251 DEB",
        "group": "cosmos-2251-debris",
        "lat": 47.94435347482967,
        "lon": 16.644530334446134,
        "alt_km": 560.0446117553565,
        "timestamp": "2025-12-16T23:36:36.592522+00:00",
        "meta_object_name": "COSMOS 2251 DEB",
        "meta_object_id": "1993-036TX",
        "meta_epoch": "2025-12-16T01:23:47.687712",
        "meta_mean_motion": 15.08279083,
        "meta_eccentricity": 0.00345881,
        "meta_inclination": 74.0413,
        "meta_ra_of_asc_node": 0.0551,
        "meta_arg_of_pericenter": 220.4446,
        "meta_mean_anomaly": 206.6919,
        "meta_ephemeris_type": 0,
        "meta_classification_type": "U",
        "meta_norad_cat_id": 34478,
        "meta_element_set_no": 999,
        "meta_rev_at_epoch": 89023,
        "meta_bstar": 0.001949162,
        "meta_mean_motion_dot": 0.00030733,
        "meta_mean_motion_ddot": 0,
        "tle_line1": "1 34478U 93036TX  25350.05819083  .00030733  00000+0  19492-2 0  9998",
        "tle_line2": "2 34478  74.0413   0.0551 0034588 220.4446 206.6919 15.08279083890236"
      },
      "geometry": {
        "type": "Point",
        "coordinates": [
          16.644530334446134,
          47.94435347482967
        ]
      }
    }
  ]
}